[{"OBJECT_NAME":"OBJECT AD","OBJECT_ID":"2023-085AD","EPOCH":"2026-03-09T21:41:29.115744","MEAN_MOTION":15.31779154,"ECCENTRICITY":0.00101154,"INCLINATION":97.4841,"RA_OF_ASC_NODE":180.2223,"ARG_OF_PERICENTER":77.5993,"MEAN_ANOMALY":282.638,"EPHEMERIS_TYPE":0,"CLASSIFICATION_TYPE":"U","NORAD_CAT_ID":57031,"ELEMENT_SET_NO":999,"REV_AT_EPOCH":15156,"BSTAR":0.00068352515,"MEAN_MOTION_DOT":0.00020961,"MEAN_MOTION_DDOT":0},{"OBJECT_NAME":"STARLINK-30561","OBJECT_ID":"2023-156E","EPOCH":"2026-03-09T07:20:20.312160","MEAN_MOTION":15.30190388,"ECCENTRICITY":0.00012635,"INCLINATION":53.1613,"RA_OF_ASC_NODE":80.2291,"ARG_OF_PERICENTER":88.5537,"MEAN_ANOMALY":271.5609,"EPHEMERIS_TYPE":0,"CLASSIFICATION_TYPE":"U","NORAD_CAT_ID":58032,"ELEMENT_SET_NO":999,"REV_AT_EPOCH":13625,"BSTAR":-8.17844e-6,"MEAN_MOTION_DOT":-6.01e-6,"MEAN_MOTION_DDOT":0}]
